IRIDIUM 138             
1 43071U 17083B   26197.82855286  .00000139  00000+0  42643-4 0  9998
2 43071  86.4000 309.3253 0002057  92.7490 267.3941 14.34219023448383
IRIDIUM 116             
1 43072U 17083C   26197.86660964  .00000124  00000+0  37176-4 0  9999
2 43072  86.3985 309.5947 0002490  97.7737 262.3742 14.34218053448428
IRIDIUM 130             
1 43073U 17083D   26197.83490014  .00000139  00000+0  42726-4 0  9997
2 43073  86.3994 309.8863 0002296 100.7272 259.4182 14.34218333448361
IRIDIUM 151             
1 43074U 17083E   26197.80952782  .00000105  00000+0  30524-4 0  9996
2 43074  86.3987 309.6771 0002259  95.0471 265.0983 14.34218196448387
IRIDIUM 134             
1 43075U 17083F   26197.84758345  .00000047  00000+0  96218-5 0  9998
2 43075  86.3989 309.6695 0002243  95.1947 264.9505 14.34217838448354
IRIDIUM 137             
1 43076U 17083G   26197.79050094  .00000053  00000+0  11711-4 0  9990
2 43076  86.3991 309.7869 0002677  93.1681 266.9821 14.34217959448410
IRIDIUM 141             
1 43077U 17083H   26197.85392534  .00000080  00000+0  21486-4 0  9996
2 43077  86.3985 309.5893 0002172  93.6034 266.5410 14.34217867448425
IRIDIUM 153             
1 43078U 17083J   26198.15494672  .00000057  00000+0  13289-4 0  9993
2 43078  86.3958 277.9426 0002127  94.9263 265.2175 14.34217873449572
IRIDIUM 131             
1 43079U 17083K   26197.35286066  .00000088  00000+0  24205-4 0  9995
2 43079  86.3990 309.9867 0002226  94.3683 265.7768 14.34218322448284
IRIDIUM 144             
1 43249U 18030A   26198.16128875  .00000088  00000+0  24429-4 0  9998
2 43249  86.3955 277.8683 0002400  96.6450 263.5019 14.34218360434433
IRIDIUM 149             
1 43250U 18030B   26198.16763218  .00000071  00000+0  18228-4 0  9998
2 43250  86.3955 277.8323 0002250  93.4740 266.6713 14.34218029434455
IRIDIUM 157             
1 43251U 18030C   26198.18666169  .00000138  00000+0  42136-4 0  9997
2 43251  86.3958 277.8784 0002269  94.1705 265.9750 14.34218501434435
IRIDIUM 140             
1 43252U 18030D   26198.20569015  .00000140  00000+0  43064-4 0  9997
2 43252  86.3957 277.8828 0002252  95.7254 264.4198 14.34218117434491
IRIDIUM 145             
1 43253U 18030E   26198.19300263  .00000099  00000+0  28338-4 0  9994
2 43253  86.3956 277.8601 0002571  99.6724 260.4762 14.34217625434428
IRIDIUM 146             
1 43254U 18030F   26198.17397524  .00000060  00000+0  14415-4 0  9998
2 43254  86.3957 277.8804 0002379  95.8415 264.3052 14.34217594434437
IRIDIUM 148             
1 43255U 18030G   26198.21203272  .00000140  00000+0  42983-4 0  9990
2 43255  86.3958 277.9079 0002340  92.9846 267.1617 14.34218503434471
IRIDIUM 142             
1 43256U 18030H   26198.18031793  .00000052  00000+0  11405-4 0  9991
2 43256  86.3954 277.8091 0002444  96.1549 263.9925 14.34217884434435
IRIDIUM 150             
1 43257U 18030J   26198.21837218  .00000151  00000+0  46881-4 0  9998
2 43257  86.3958 277.9106 0002290  96.4130 263.7327 14.34217456434468
IRIDIUM 143             
1 43258U 18030K   26197.78073524  .00000089  00000+0  24700-4 0  9998
2 43258  86.3961 278.1873 0002344  96.7905 263.3557 14.34217816434337
IRIDIUM 161             
1 43478U 18047C   26198.11991516  .00000153  00000+0  39365-4 0  9993
2 43478  86.4460  75.9530 0002228  80.8974 279.2479 14.43276258429451
IRIDIUM 152             
1 43479U 18047D   26197.75345238  .00000059  00000+0  13958-4 0  9992
2 43479  86.3934  75.9676 0002152  84.1865 275.9576 14.34218453426721
IRIDIUM 147             
1 43480U 18047E   26197.75979481  .00000071  00000+0  18278-4 0  9991
2 43480  86.3937  75.9707 0002276  88.5156 271.6301 14.34217420426721
IRIDIUM 110             
1 43481U 18047F   26197.97544053  .00000144  00000+0  44308-4 0  9993
2 43481  86.3939  75.9732 0002078  77.6883 282.4545 14.34219041426741
IRIDIUM 162             
1 43482U 18047G   26198.11361669  .00000175  00000+0  45904-4 0  9998
2 43482  86.4458  75.8462 0002195  87.1760 272.9692 14.43279058429449
IRIDIUM 160             
1 43569U 18061A   26197.64220407  .00000127  00000+0  38231-4 0  9993
2 43569  86.3939  44.4763 0002230  86.8473 273.2978 14.34217435417596
IRIDIUM 166             
1 43570U 18061B   26197.59780667  .00000043  00000+0  83983-5 0  9990
2 43570  86.3938  44.4451 0002284  89.8451 270.3007 14.34217755417618
IRIDIUM 158             
1 43571U 18061C   26197.98470414  .00000058  00000+0  13505-4 0  9998
2 43571  86.3938  44.2926 0002103  88.2698 271.8739 14.34217889417638
IRIDIUM 165             
1 43572U 18061D   26198.01007610  .00000039  00000+0  69316-5 0  9999
2 43572  86.3939  44.3292 0002278  90.1879 269.9578 14.34217293417664
IRIDIUM 155             
1 43573U 18061E   26197.97201943  .00000046  00000+0  92371-5 0  9994
2 43573  86.3937  44.2133 0002140  89.6600 270.4841 14.34217570417623
IRIDIUM 154             
1 43574U 18061F   26198.02275997  .00000039  00000+0  67638-5 0  9992
2 43574  86.3940  44.3267 0002302  90.0435 270.1025 14.34217536417688
IRIDIUM 163             
1 43575U 18061G   26198.00373313  .00000010  00000+0 -33167-5 0  9992
2 43575  86.3936  44.2489 0002120  85.6166 274.5272 14.34217152417651
